ONEWEB-0045             
1 45151U 20008W   25041.73615684  .00000515  00000+0  14172-2 0  9995
2 45151  87.8882 119.0026 0001931 107.9434 252.1905 13.11415813246778
ONEWEB-0047             
1 45152U 20008X   25041.48318694  .00000425  00000+0  11803-2 0  9997
2 45152  87.8903 134.2630 0001721 108.9551 251.1763 13.10372365243806
ONEWEB-0048             
1 45153U 20008Y   25041.47821119  .00000636  00000+0  17846-2 0  9995
2 45153  87.8908 134.2846 0001741 106.8057 253.3261 13.10370899243415
ONEWEB-0049             
1 45154U 20008Z   25041.47986900  .00000588  00000+0  16471-2 0  9995
2 45154  87.8912 134.2728 0001351  94.9490 265.1791 13.10370922243635
ONEWEB-0051             
1 45155U 20008AA  25041.73445713  .00000539  00000+0  14858-2 0  9990
2 45155  87.8883 119.0459 0001910 102.5710 257.5632 13.11416342247458
ONEWEB-0052             
1 45156U 20008AB  25041.55290688  .00000569  00000+0  15929-2 0  9993
2 45156  87.8904 134.2117 0001236 100.1262 260.0005 13.10371817243556
ONEWEB-0053             
1 45157U 20008AC  25041.76371618  .00000194  00000+0  51902-3 0  9996
2 45157  87.8911 134.2278 0001811 119.1036 241.0273 13.10375943244316
ONEWEB-0054             
1 45158U 20008AD  25041.49313698  .00000032  00000+0  54039-4 0  9997
2 45158  87.8903 134.2589 0001798 104.7534 255.3792 13.10370237243639
